ONEWEB-0603             
1 54667U 22166AB  23312.87881355 -.00000007  00000+0 -48653-4 0  9999
2 54667  87.9239  73.3537 0002121  93.9809 266.1567 13.21823563 45804
ONEWEB-0604             
1 54668U 22166AC  23312.86619168 -.00000219  00000+0 -56270-3 0  9998
2 54668  87.9232  73.3522 0002100  88.5830 271.5545 13.21830407 45769
ONEWEB-0605             
1 54669U 22166AD  23312.85990000  .00000062  00000+0  11770-3 0  9995
2 54669  87.9246  73.3806 0002338 104.2590 255.8804 13.21824177 45830
ONEWEB-0606             
1 54670U 22166AE  23313.41183938  .00000001  00000+0 -29737-4 0  9991
2 54670  87.9236  73.2558 0001377 103.0417 257.0870 13.21824727 46425
ONEWEB-0607             
1 54671U 22166AF  23312.84887318 -.00000279  00000+0 -70702-3 0  9996
2 54671  87.9229  73.3552 0002316  97.3451 262.7946 13.21825806 45863
ONEWEB-0608             
1 54672U 22166AG  23313.38505269  .00000038  00000+0  60858-4 0  9992
2 54672  87.9238  73.2549 0002400  99.5887 260.5518 13.21828020 46403
ONEWEB-0610             
1 54673U 22166AH  23313.36612888  .00000204  00000+0  46251-3 0  9992
2 54673  87.9240  73.2588 0002415  98.4809 261.6598 13.21827699 46319
ONEWEB-0611             
1 54674U 22166AJ  23313.35981465  .00004029  00000+0  97231-2 0  9994
2 54674  87.9238  73.2619 0001090  97.8499 262.2758 13.21807963 46304
